NORAD_CAT_ID,OBJECT_NAME,OBJECT_TYPE,EPOCH,MEAN_MOTION,ECCENTRICITY,INCLINATION,RA_OF_ASC_NODE,ARG_OF_PERICENTER,MEAN_ANOMALY,BSTAR,MEAN_MOTION_DOT,MEAN_MOTION_DDOT,TLE_LINE0,TLE_LINE1,TLE_LINE2,SEMIMAJOR_AXIS,PERIOD,APOGEE,PERIGEE,DECAYED
51724.0,STARLINK-3529,PAYLOAD,2024-01-14 21:27:25,15.08842451,0.000126,53.2156,252.2072,82.2313,277.8822,0.00010713,1.418e-05,0.0,0 STARLINK-3529,1 51724U 22016L   24014.89404008  .00001418  00000-0  10713-3 0  9993,2 51724  53.2156 252.2072 0001260  82.2313 277.8822 15.08842451104943,6917.873,95.437,540.61,538.866,0.0
51724.0,STARLINK-3529,PAYLOAD,2024-01-15 00:38:11,15.08846566,0.000131,53.2161,251.6124,85.3689,274.7452,0.00014616,2.039e-05,0.0,0 STARLINK-3529,1 51724U 22016L   24015.02651652  .00002039  00000-0  14616-3 0  9994,2 51724  53.2161 251.6124 0001310  85.3689 274.7452 15.08846566106023,6917.86,95.437,540.632,538.819,0.0
51724.0,STARLINK-3529,PAYLOAD,2024-01-15 19:42:49,15.08842994,0.0001573,53.2172,248.0413,81.9511,278.1659,-1.3916e-05,-5.1e-06,0.0,0 STARLINK-3529,1 51724U 22016L   24015.82140371 -.00000510  00000-0 -13916-4 0  9990,2 51724  53.2172 248.0413 0001573  81.9511 278.1659 15.08842994105086,6917.871,95.437,540.824,538.648,0.0
51724.0,STARLINK-3529,PAYLOAD,2024-01-16 02:04:21,15.08845583,0.0001575,53.2174,246.8545,84.9179,275.1993,7.8527e-06,-1.63e-06,0.0,0 STARLINK-3529,1 51724U 22016L   24016.08636077 -.00000163  00000-0  78527-5 0  9995,2 51724  53.2174 246.8545 0001575  84.9179 275.1993 15.08845583106182,6917.863,95.437,540.818,538.639,0.0
51724.0,STARLINK-3529,PAYLOAD,2024-01-16 19:33:36,15.08842124,0.0001591,53.217,243.5829,86.3081,273.8093,-6.3385e-06,-3.89e-06,0.0,0 STARLINK-3529,1 51724U 22016L   24016.81500405 -.00000389  00000-0 -63385-5 0  9998,2 51724  53.2170 243.5829 0001591  86.3081 273.8093 15.08842124106299,6917.874,95.437,540.84,538.638,0.0
51724.0,STARLINK-3529,PAYLOAD,2024-01-16 21:08:59,15.08843171,0.0001575,53.2168,243.2857,89.5085,270.6088,-9.2341e-06,-4.35e-06,0.0,0 STARLINK-3529,1 51724U 22016L   24016.88124312 -.00000435  00000-0 -92341-5 0  9990,2 51724  53.2168 243.2857 0001575  89.5085 270.6088 15.08843171105241,6917.871,95.437,540.825,538.646,0.0
51724.0,STARLINK-3529,PAYLOAD,2024-01-16 22:44:22,15.08843314,0.0001618,53.2168,242.9883,81.5833,278.5343,2.8542e-05,1.66e-06,0.0,0 STARLINK-3529,1 51724U 22016L   24016.94748210  .00000166  00000-0  28542-4 0  9996,2 51724  53.2168 242.9883 0001618  81.5833 278.5343 15.08843314105258,6917.87,95.437,540.855,538.616,0.0
51724.0,STARLINK-3529,PAYLOAD,2024-01-17 20:59:46,15.08838951,0.0001354,53.2154,238.8249,99.0102,261.1044,3.6654e-05,2.95e-06,0.0,0 STARLINK-3529,1 51724U 22016L   24017.87484462  .00000295  00000-0  36654-4 0  9991,2 51724  53.2154 238.8249 0001354  99.0102 261.1044 15.08838951105395,6917.884,95.438,540.685,538.812,0.0
51724.0,STARLINK-3529,PAYLOAD,2024-01-18 20:50:33,15.08850131,0.0001363,53.2163,234.3619,96.5333,263.5814,1.7063e-05,-1.6e-07,0.0,0 STARLINK-3529,1 51724U 22016L   24018.86843902 -.00000016  00000-0  17063-4 0  9994,2 51724  53.2163 234.3619 0001363  96.5333 263.5814 15.08850131105547,6917.849,95.437,540.657,538.772,0.0
51724.0,STARLINK-3529,PAYLOAD,2024-01-19 00:01:19,15.08824234,0.0001572,53.2161,233.7679,99.3338,260.7832,0.00037991,5.761e-05,0.0,0 STARLINK-3529,1 51724U 22016L   24019.00092509  .00005761  00000-0  37991-3 0  9992,2 51724  53.2161 233.7679 0001572  99.3338 260.7832 15.08824234106626,6917.929,95.439,540.881,538.706,0.0
51724.0,STARLINK-3529,PAYLOAD,2024-01-19 19:05:57,15.08841429,0.0001397,53.2162,230.1982,96.8962,263.2189,4.9949e-05,5.07e-06,0.0,0 STARLINK-3529,1 51724U 22016L   24019.79580279  .00000507  00000-0  49949-4 0  9994,2 51724  53.2162 230.1982 0001397  96.8962 263.2189 15.08841429106746,6917.876,95.437,540.707,538.775,0.0
51724.0,STARLINK-3529,PAYLOAD,2024-01-19 20:41:20,15.08841655,0.0001397,53.2162,229.9008,96.4313,263.6838,4.96e-05,5.02e-06,0.0,0 STARLINK-3529,1 51724U 22016L   24019.86204243  .00000502  00000-0  49600-4 0  9995,2 51724  53.2162 229.9008 0001397  96.4313 263.6838 15.08841655105696,6917.875,95.437,540.707,538.774,0.0
51724.0,STARLINK-3529,PAYLOAD,2024-01-20 14:10:35,15.08838535,0.0001455,53.2162,226.6303,98.2847,261.831,7.6455e-06,-1.66e-06,0.0,0 STARLINK-3529,1 51724U 22016L   24020.59068617 -.00000166  00000-0  76455-5 0  9996,2 51724  53.2162 226.6303 0001455  98.2847 261.8310 15.08838535105806,6917.885,95.438,540.756,538.743,0.0
51724.0,STARLINK-3529,PAYLOAD,2024-01-20 18:56:44,15.08838166,0.0001453,53.2162,225.7381,101.5187,258.5969,-7.039e-07,-2.99e-06,0.0,0 STARLINK-3529,1 51724U 22016L   24020.78940633 -.00000299  00000-0 -70390-6 0  9995,2 51724  53.2162 225.7381 0001453 101.5187 258.5969 15.08838166106898,6917.886,95.438,540.756,538.746,0.0
51724.0,STARLINK-3529,PAYLOAD,2024-01-20 20:32:07,15.08838043,0.0001435,53.2162,225.4408,99.8707,260.2447,-4.4637e-06,-3.59e-06,0.0,0 STARLINK-3529,1 51724U 22016L   24020.85564643 -.00000359  00000-0 -44637-5 0  9997,2 51724  53.2162 225.4408 0001435  99.8707 260.2447 15.08838043105841,6917.886,95.438,540.744,538.759,0.0
51724.0,STARLINK-3529,PAYLOAD,2024-01-21 21:58:17,15.08840911,0.0001381,53.216,220.6835,96.8379,263.2771,7.394e-05,8.89e-06,0.0,0 STARLINK-3529,1 51724U 22016L   24021.91548284  .00000889  00000-0  73940-4 0  9992,2 51724  53.2160 220.6835 0001381  96.8379 263.2771 15.08840911106001,6917.878,95.437,540.698,538.787,0.0
51724.0,STARLINK-3529,PAYLOAD,2024-01-21 23:33:40,15.08840923,0.0001392,53.2161,220.388,98.7943,261.3207,7.1441e-05,8.49e-06,0.0,0 STARLINK-3529,1 51724U 22016L   24021.98172304  .00000849  00000-0  71441-4 0  9995,2 51724  53.2161 220.3880 0001392  98.7943 261.3207 15.08840923107073,6917.878,95.437,540.706,538.78,0.0
51724.0,STARLINK-3529,PAYLOAD,2024-01-22 12:16:46,15.0883507,0.0001439,53.2163,218.0093,102.2129,257.9024,5.9139e-05,6.53e-06,0.0,0 STARLINK-3529,1 51724U 22016L   24022.51164838  .00000653  00000-0  59139-4 0  9991,2 51724  53.2163 218.0093 0001439 102.2129 257.9024 15.08835070107158,6917.895,95.438,540.756,538.765,0.0
51724.0,STARLINK-3529,PAYLOAD,2024-01-22 20:13:42,15.08836772,0.0001377,53.2161,216.5227,98.2076,261.9073,6.368e-05,7.26e-06,0.0,0 STARLINK-3529,1 51724U 22016L   24022.84284749  .00000726  00000-0  63680-4 0  9998,2 51724  53.2161 216.5227 0001377  98.2076 261.9073 15.08836772106141,6917.89,95.438,540.708,538.803,0.0
51724.0,STARLINK-3529,PAYLOAD,2024-01-23 04:10:37,15.08837588,0.0001274,53.2147,215.0351,93.0463,267.0675,4.5625e-05,4.38e-06,0.0,0 STARLINK-3529,1 51724U 22016L   24023.17404824  .00000438  00000-0  45625-4 0  9992,2 51724  53.2147 215.0351 0001274  93.0463 267.0675 15.08837588106192,6917.888,95.438,540.634,538.871,0.0
51724.0,STARLINK-3529,PAYLOAD,2024-01-23 16:53:42,15.08843293,0.0001257,53.2149,212.6564,88.246,271.8676,4.2638e-05,3.91e-06,0.0,0 STARLINK-3529,1 51724U 22016L   24023.70396581  .00000391  00000-0  42638-4 0  9990,2 51724  53.2149 212.6564 0001257  88.2460 271.8676 15.08843293107338,6917.87,95.437,540.605,538.866,0.0
51724.0,STARLINK-3529,PAYLOAD,2024-01-23 21:39:51,15.08844221,0.0001307,53.2154,211.7644,93.9039,266.2103,5.1473e-05,5.31e-06,0.0,0 STARLINK-3529,1 51724U 22016L   24023.90268382  .00000531  00000-0  51473-4 0  9992,2 51724  53.2154 211.7644 0001307  93.9039 266.2103 15.08844221106305,6917.867,95.437,540.637,538.828,0.0
51724.0,STARLINK-3529,PAYLOAD,2024-01-24 02:26:01,15.08836305,0.0001239,53.2152,210.8718,95.9952,264.1181,-2.2302e-05,-6.43e-06,0.0,0 STARLINK-3529,1 51724U 22016L   24024.10140980 -.00000643  00000-0 -22302-4 0  9993,2 51724  53.2152 210.8718 0001239  95.9952 264.1181 15.08836305107392,6917.892,95.438,540.614,538.9,0.0
51724.0,STARLINK-3529,PAYLOAD,2024-01-24 13:33:43,15.08838263,0.0001278,53.2154,208.7904,85.8719,274.2419,3.0863e-05,2.03e-06,0.0,0 STARLINK-3529,1 51724U 22016L   24024.56509010  .00000203  00000-0  30863-4 0  9997,2 51724  53.2154 208.7904 0001278  85.8719 274.2419 15.08838263106401,6917.886,95.438,540.635,538.867,0.0
51724.0,STARLINK-3529,PAYLOAD,2024-01-24 21:30:39,15.08841979,0.0001283,53.2156,207.3038,84.6098,275.504,6.7545e-05,7.87e-06,0.0,0 STARLINK-3529,1 51724U 22016L   24024.89628704  .00000787  00000-0  67545-4 0  9999,2 51724  53.2156 207.3038 0001283  84.6098 275.5040 15.08841979106456,6917.874,95.437,540.627,538.852,0.0
51724.0,STARLINK-3529,PAYLOAD,2024-01-24 23:06:02,15.08843477,0.0001323,53.2155,207.0061,85.4089,274.7054,6.7802e-05,7.91e-06,0.0,0 STARLINK-3529,1 51724U 22016L   24024.96252609  .00000791  00000-0  67802-4 0  9995,2 51724  53.2155 207.0061 0001323  85.4089 274.7054 15.08843477107522,6917.87,95.437,540.65,538.82,0.0
51724.0,STARLINK-3529,PAYLOAD,2024-01-25 18:10:39,15.08843658,0.0001327,53.2156,203.4381,85.9322,274.1822,7.7679e-05,9.49e-06,0.0,0 STARLINK-3529,1 51724U 22016L   24025.75740619  .00000949  00000-0  77679-4 0  9994,2 51724  53.2156 203.4381 0001327  85.9322 274.1822 15.08843658106580,6917.869,95.437,540.652,538.816,0.0
51724.0,STARLINK-3529,PAYLOAD,2024-01-26 14:50:40,15.08839929,0.0001296,53.2157,199.5724,80.3925,279.7214,0.00010747,1.423e-05,0.0,0 STARLINK-3529,1 51724U 22016L   24026.61852809  .00001423  00000-0  10747-3 0  9995,2 51724  53.2157 199.5724 0001296  80.3925 279.7214 15.08839929106717,6917.881,95.438,540.642,538.849,0.0
51724.0,STARLINK-3529,PAYLOAD,2024-01-26 18:01:26,15.08842467,0.0001273,53.2157,198.9776,80.3992,279.7144,9.3372e-05,1.199e-05,0.0,0 STARLINK-3529,1 51724U 22016L   24026.75100670  .00001199  00000-0  93372-4 0  9998,2 51724  53.2157 198.9776 0001273  80.3992 279.7144 15.08842467107798,6917.873,95.437,540.618,538.857,0.0
51724.0,STARLINK-3529,PAYLOAD,2024-01-27 11:30:41,15.08838241,0.0001247,53.2162,195.706,77.8151,282.2981,5.1908e-05,5.38e-06,0.0,0 STARLINK-3529,1 51724U 22016L   24027.47965111  .00000538  00000-0  51908-4 0  9992,2 51724  53.2162 195.7060 0001247  77.8151 282.2981 15.08838241107900,6917.886,95.438,540.613,538.888,0.0
